[
    {
        "Altitude(m)": 622200.1405542487,
        "Argument of Periapsis(deg)": 0.0,
        "Eccentricity": 0.0,
        "Inclination(deg)": 60.0,
        "Latitude(deg)": -52.1626302825897,
        "Longitude(deg)": -127.63933539876125,
        "Mean Anomaly(deg)": 294.5455,
        "RAAN(deg)": 20.0,
        "Satellite Name": "Test1 106",
        "Satellite Number": 106,
        "Semi-Major Axis(m)": 6980739.136638005,
        "Time(s)": 0
    },
    {
        "Altitude(m)": 622058.3087397261,
        "Argument of Periapsis(deg)": 0.00010418945913296404,
        "Eccentricity": 0.0,
        "Inclination(deg)": 60.0,
        "Latitude(deg)": -51.7993808542886,
        "Longitude(deg)": -126.8712748049998,
        "Mean Anomaly(deg)": 295.1656061454619,
        "RAAN(deg)": 19.99957995086026,
        "Satellite Name": "Test1 106",
        "Satellite Number": 106,
        "Semi-Major Axis(m)": 6980739.136638005,
        "Time(s)": 10
    },
    {
        "Altitude(m)": 621913.7436245775,
        "Argument of Periapsis(deg)": 0.0002083789182659281,
        "Eccentricity": 0.0,
        "Inclination(deg)": 60.0,
        "Latitude(deg)": -51.43061981792743,
        "Longitude(deg)": -126.11619303223328,
        "Mean Anomaly(deg)": 295.78571229092364,
        "RAAN(deg)": 19.999159901720517,
        "Satellite Name": "Test1 106",
        "Satellite Number": 106,
        "Semi-Major Axis(m)": 6980739.136638005,
        "Time(s)": 20
    },
    {
        "Altitude(m)": 621766.501647958,
        "Argument of Periapsis(deg)": 0.00031256837739889213,
        "Eccentricity": 0.0,
        "Inclination(deg)": 60.0,
        "Latitude(deg)": -51.05650429507385,
        "Longitude(deg)": -125.37390038422797,
        "Mean Anomaly(deg)": 296.4058184363855,
        "RAAN(deg)": 19.99873985258077,
        "Satellite Name": "Test1 106",
        "Satellite Number": 106,
        "Semi-Major Axis(m)": 6980739.136638005,
        "Time(s)": 30
    },
    {
        "Altitude(m)": 621616.6402654279,
        "Argument of Periapsis(deg)": 0.0004167578365318562,
        "Eccentricity": 0.0,
        "Inclination(deg)": 60.0,
        "Latitude(deg)": -50.6771877167644,
        "Longitude(deg)": -124.64419939905828,
        "Mean Anomaly(deg)": 297.02592458184733,
        "RAAN(deg)": 19.998319803441028,
        "Satellite Name": "Test1 106",
        "Satellite Number": 106,
        "Semi-Major Axis(m)": 6980739.136638005,
        "Time(s)": 40
    },
    {
        "Altitude(m)": 621464.217924369,
        "Argument of Periapsis(deg)": 0.0005209472956648203,
        "Eccentricity": 0.0,
        "Inclination(deg)": 60.0,
        "Latitude(deg)": -50.29281979649592,
        "Longitude(deg)": -123.92688689896121,
        "Mean Anomaly(deg)": 297.6460307273092,
        "RAAN(deg)": 19.997899754301287,
        "Satellite Name": "Test1 106",
        "Satellite Number": 106,
        "Semi-Major Axis(m)": 6980739.136638005,
        "Time(s)": 50
    },
    {
        "Altitude(m)": 621309.2940389102,
        "Argument of Periapsis(deg)": 0.0006251367547977843,
        "Eccentricity": 0.0,
        "Inclination(deg)": 60.0,
        "Latitude(deg)": -49.90354651777379,
        "Longitude(deg)": -123.22175445796816,
        "Mean Anomaly(deg)": 298.266136872771,
        "RAAN(deg)": 19.997479705161545,
        "Satellite Name": "Test1 106",
        "Satellite Number": 106,
        "Semi-Major Axis(m)": 6980739.136638005,
        "Time(s)": 60
    },
    {
        "Altitude(m)": 621151.9289644695,
        "Argument of Periapsis(deg)": 0.0007293262139307483,
        "Eccentricity": 0.0,
        "Inclination(deg)": 60.0,
        "Latitude(deg)": -49.509510134811656,
        "Longitude(deg)": -122.52858880159383,
        "Mean Anomaly(deg)": 298.88624301823285,
        "RAAN(deg)": 19.9970596560218,
        "Satellite Name": "Test1 106",
        "Satellite Number": 106,
        "Semi-Major Axis(m)": 6980739.136638005,
        "Time(s)": 70
    },
    {
        "Altitude(m)": 620992.1839718323,
        "Argument of Periapsis(deg)": 0.0008335156730637124,
        "Eccentricity": 0.0,
        "Inclination(deg)": 60.0,
        "Latitude(deg)": -49.11084918504878,
        "Longitude(deg)": -121.84717365328257,
        "Mean Anomaly(deg)": 299.50634916369467,
        "RAAN(deg)": 19.99663960688206,
        "Satellite Name": "Test1 106",
        "Satellite Number": 106,
        "Semi-Major Axis(m)": 6980739.136638005,
        "Time(s)": 80
    },
    {
        "Altitude(m)": 620830.121220844,
        "Argument of Periapsis(deg)": 0.0009377051321966765,
        "Eccentricity": 0.0,
        "Inclination(deg)": 60.0,
        "Latitude(deg)": -48.70769851222821,
        "Longitude(deg)": -121.17729000401391,
        "Mean Anomaly(deg)": 300.1264553091565,
        "RAAN(deg)": 19.996219557742315,
        "Satellite Name": "Test1 106",
        "Satellite Number": 106,
        "Semi-Major Axis(m)": 6980739.136638005,
        "Time(s)": 90
    },
    {
        "Altitude(m)": 620665.8037336831,
        "Argument of Periapsis(deg)": 0.0010418945913296407,
        "Eccentricity": 0.0,
        "Inclination(deg)": 60.0,
        "Latitude(deg)": -48.30018929885096,
        "Longitude(deg)": -120.51871632036209,
        "Mean Anomaly(deg)": 300.74656145461836,
        "RAAN(deg)": 19.995799508602573,
        "Satellite Name": "Test1 106",
        "Satellite Number": 106,
        "Semi-Major Axis(m)": 6980739.136638005,
        "Time(s)": 100
    },
    {
        "Altitude(m)": 620499.295367753,
        "Argument of Periapsis(deg)": 0.0011460840504626045,
        "Eccentricity": 0.0,
        "Inclination(deg)": 60.0,
        "Latitude(deg)": -47.888449106897156,
        "Longitude(deg)": -119.87123020650185,
        "Mean Anomaly(deg)": 301.3666676000801,
        "RAAN(deg)": 19.99537945946283,
        "Satellite Name": "Test1 106",
        "Satellite Number": 106,
        "Semi-Major Axis(m)": 6980739.136638005,
        "Time(s)": 110
    },
    {
        "Altitude(m)": 620330.6607881706,
        "Argument of Periapsis(deg)": 0.0012502735095955685,
        "Eccentricity": 0.0,
        "Inclination(deg)": 60.0,
        "Latitude(deg)": -47.47260192578648,
        "Longitude(deg)": -119.23460849716376,
        "Mean Anomaly(deg)": 301.986773745542,
        "RAAN(deg)": 19.99495941032309,
        "Satellite Name": "Test1 106",
        "Satellite Number": 106,
        "Semi-Major Axis(m)": 6980739.136638005,
        "Time(s)": 120
    },
    {
        "Altitude(m)": 620159.9654399223,
        "Argument of Periapsis(deg)": 0.0013544629687285324,
        "Eccentricity": 0.0,
        "Inclination(deg)": 60.0,
        "Latitude(deg)": -47.05276822662099,
        "Longitude(deg)": -118.60862729726301,
        "Mean Anomaly(deg)": 302.6068798910038,
        "RAAN(deg)": 19.994539361183342,
        "Satellite Name": "Test1 106",
        "Satellite Number": 106,
        "Semi-Major Axis(m)": 6980739.136638005,
        "Time(s)": 130
    },
    {
        "Altitude(m)": 619987.275519613,
        "Argument of Periapsis(deg)": 0.0014586524278614966,
        "Eccentricity": 0.0,
        "Inclination(deg)": 60.0,
        "Latitude(deg)": -46.62906502182712,
        "Longitude(deg)": -117.99306348397329,
        "Mean Anomaly(deg)": 303.22698603646563,
        "RAAN(deg)": 19.9941193120436,
        "Satellite Name": "Test1 106",
        "Satellite Number": 106,
        "Semi-Major Axis(m)": 6980739.136638005,
        "Time(s)": 140
    },
    {
        "Altitude(m)": 619812.6579469221,
        "Argument of Periapsis(deg)": 0.0015628418869944607,
        "Eccentricity": 0.0,
        "Inclination(deg)": 60.0,
        "Latitude(deg)": -46.20160592938896,
        "Longitude(deg)": -117.38769464840263,
        "Mean Anomaly(deg)": 303.84709218192745,
        "RAAN(deg)": 19.99369926290386,
        "Satellite Name": "Test1 106",
        "Satellite Number": 106,
        "Semi-Major Axis(m)": 6980739.136638005,
        "Time(s)": 150
    },
    {
        "Altitude(m)": 619636.1803356666,
        "Argument of Periapsis(deg)": 0.0016670313461274247,
        "Eccentricity": 0.0,
        "Inclination(deg)": 60.0,
        "Latitude(deg)": -45.77050124092912,
        "Longitude(deg)": -116.79229899263503,
        "Mean Anomaly(deg)": 304.46719832738927,
        "RAAN(deg)": 19.99327921376412,
        "Satellite Name": "Test1 106",
        "Satellite Number": 106,
        "Semi-Major Axis(m)": 6980739.136638005,
        "Time(s)": 160
    },
    {
        "Altitude(m)": 619457.9109645924,
        "Argument of Periapsis(deg)": 0.0017712208052603888,
        "Eccentricity": 0.0,
        "Inclination(deg)": 60.0,
        "Latitude(deg)": -45.33585799295898,
        "Longitude(deg)": -116.20665669785977,
        "Mean Anomaly(deg)": 305.0873044728511,
        "RAAN(deg)": 19.992859164624374,
        "Satellite Name": "Test1 106",
        "Satellite Number": 106,
        "Semi-Major Axis(m)": 6980739.136638005,
        "Time(s)": 170
    },
    {
        "Altitude(m)": 619277.9187478042,
        "Argument of Periapsis(deg)": 0.001875410264393353,
        "Eccentricity": 0.0,
        "Inclination(deg)": 60.0,
        "Latitude(deg)": -44.89778004068533,
        "Longitude(deg)": -115.63054974061511,
        "Mean Anomaly(deg)": 305.70741061831296,
        "RAAN(deg)": 19.99243911548463,
        "Satellite Name": "Test1 106",
        "Satellite Number": 106,
        "Semi-Major Axis(m)": 6980739.136638005,
        "Time(s)": 180
    },
    {
        "Altitude(m)": 619096.273204935,
        "Argument of Periapsis(deg)": 0.0019795997235263173,
        "Eccentricity": 0.0,
        "Inclination(deg)": 60.0,
        "Latitude(deg)": -44.456368133817634,
        "Longitude(deg)": -115.06376167272282,
        "Mean Anomaly(deg)": 306.3275167637747,
        "RAAN(deg)": 19.992019066344888,
        "Satellite Name": "Test1 106",
        "Satellite Number": 106,
        "Semi-Major Axis(m)": 6980739.136638005,
        "Time(s)": 190
    }
]